OBJECT_NAME,OBJECT_ID,EPOCH,MEAN_MOTION,ECCENTRICITY,INCLINATION,RA_OF_ASC_NODE,ARG_OF_PERICENTER,MEAN_ANOMALY,EPHEMERIS_TYPE,CLASSIFICATION_TYPE,NORAD_CAT_ID,ELEMENT_SET_NO,REV_AT_EPOCH,BSTAR,MEAN_MOTION_DOT,MEAN_MOTION_DDOT
STARLINK-11247 [DTC],2024-152A,2026-05-24T03:44:55.768128,15.69710894,.0001159,53.1584,104.5523,110.9130,249.2012,0,U,60720,999,10068,.67398E-5,.228E-5,0
STARLINK-11259 [DTC],2024-152B,2026-05-24T03:37:51.676320,15.69701860,.0001171,53.1594,104.5187,81.9625,278.1526,0,U,60721,999,10068,.19148E-4,.1731E-4,0
STARLINK-11188 [DTC],2024-152C,2026-05-24T03:30:47.967264,15.69710036,.0000983,53.1579,104.4835,73.3960,286.7166,0,U,60722,999,10080,.2611E-5,-.272E-5,0
STARLINK-11272 [DTC],2024-152D,2026-05-24T03:16:40.587168,15.69707009,.0000767,53.1584,104.4202,101.5976,258.5128,0,U,60723,999,10068,.43961E-5,-.55E-6,0
STARLINK-11261 [DTC],2024-152E,2026-05-24T03:23:44.258208,15.69710779,.0000807,53.1569,104.4524,86.6201,273.4910,0,U,60724,999,10068,.13767E-4,.108E-4,0
STARLINK-11263 [DTC],2024-152F,2026-05-24T03:09:36.745056,15.69712325,.0001371,53.1603,104.3892,106.3843,253.7326,0,U,60725,999,10068,-.11101E-4,-.1934E-4,0
STARLINK-11235 [DTC],2024-152G,2026-05-24T03:02:34.046016,15.69696476,.000089,53.1598,104.3562,64.8838,295.2272,0,U,60726,999,10081,.3959E-5,-.109E-5,0
STARLINK-11080 [DTC],2024-152H,2026-05-24T04:27:10.147104,15.69704188,.0001,53.1595,104.0091,68.8107,291.3018,0,U,60727,999,10082,.85463E-5,.447E-5,0
STARLINK-11249 [DTC],2024-152J,2026-05-24T04:20:06.222912,15.69702523,.0001013,53.1579,103.9731,34.3969,325.7115,0,U,60728,999,10069,.12795E-4,.961E-5,0
STARLINK-11146 [DTC],2024-152K,2026-05-24T04:13:02.665056,15.69701330,.000065,53.1577,103.9306,88.8950,271.2142,0,U,60729,999,10082,-.8905E-5,-.1666E-4,0
STARLINK-11255 [DTC],2024-152L,2026-05-24T04:05:59.106336,15.69697294,.0000837,53.1584,103.9091,77.4041,282.7071,0,U,60730,999,10070,.17967E-5,-.37E-5,0
STARLINK-11254 [DTC],2024-152M,2026-05-24T03:58:55.016256,15.69703423,.0000824,53.1584,103.8753,80.8655,279.2456,0,U,60731,999,10070,-.5085E-5,-.1204E-4,0
STARLINK-11266 [DTC],2024-152N,2026-05-24T03:51:50.851008,15.69708547,.0001128,53.1588,103.8354,70.3606,289.7533,0,U,60732,999,10069,.63828E-6,-.511E-5,0
STARLINK-32253,2024-152P,2026-05-24T01:47:18.292992,15.30194399,.0001001,53.1607,278.1906,92.8747,267.2369,0,U,60733,999,9834,.11426E-4,-.21E-6,0
STARLINK-32179,2024-152Q,2026-05-23T18:57:49.470624,15.30202780,.0001092,53.1598,279.9811,80.0158,280.0966,0,U,60734,999,9821,-.29523E-4,-.1233E-4,0
STARLINK-32289,2024-152T,2026-05-24T02:29:51.591840,15.30207895,.0001031,53.1595,278.3815,88.3649,271.7470,0,U,60737,999,9839,.24796E-3,.6994E-4,0
STARLINK-32304,2024-152U,2026-05-24T02:25:17.664096,15.30193022,.0000867,53.1612,278.3632,80.7254,279.3845,0,U,60738,999,9839,-.97368E-5,-.647E-5,0
STARLINK-32235,2024-152V,2026-05-24T02:20:44.132064,15.30190798,.0001004,53.1605,278.3423,100.9683,259.1430,0,U,60739,999,9834,.12245E-4,.4E-7,0
STARLINK-32315,2024-152W,2026-05-24T02:16:10.447104,15.30191993,.0000987,53.1605,278.3223,105.7460,254.3650,0,U,60740,999,9826,.30177E-4,.535E-5,0
2024-153A,2024-153A,2026-05-24T05:01:41.625120,15.44431488,.0008196,97.6701,284.6157,218.2950,141.7716,0,U,60745,999,9640,.92384E-3,.4286E-3,0
2024-153B,2024-153B,2026-05-24T05:27:05.988096,15.32635224,.0009066,97.6749,282.7907,239.4536,120.5811,0,U,60746,999,9628,.35765E-3,.11206E-3,0
2024-153C,2024-153C,2026-05-24T04:49:39.956160,15.40183140,.0008774,97.6745,285.4178,229.5319,130.5162,0,U,60747,999,9645,.53039E-3,.2126E-3,0
2024-153D,2024-153D,2026-05-24T04:35:42.481824,15.27089858,.0000623,97.6757,281.4041,278.4548,81.6620,0,U,60748,999,9618,.44475E-3,.11748E-3,0
2024-153E,2024-153E,2026-05-24T04:58:37.606080,15.26274674,.0002024,97.6687,280.9025,44.1443,315.9956,0,U,60749,999,9617,.48786E-3,.12582E-3,0
2024-153F,2024-153F,2026-05-24T04:47:06.818208,15.25230480,.0004726,97.6683,280.1726,344.7610,15.3484,0,U,60750,999,9614,.43231E-3,.10795E-3,0
STARLINK-11242 [DTC],2024-154A,2026-05-24T02:39:34.733088,15.69712331,.0000865,53.1579,119.2093,104.8632,255.2482,0,U,60903,999,10036,-.55384E-5,-.1259E-4,0
STARLINK-11256 [DTC],2024-154B,2026-05-24T02:32:30.937632,15.69707436,.0000977,53.1594,119.1768,91.9723,268.1407,0,U,60904,999,10036,.11125E-5,-.454E-5,0
STARLINK-11159 [DTC],2024-154C,2026-05-24T05:21:53.080128,15.69731513,.0000938,53.1575,119.2193,67.2392,292.8724,0,U,60905,999,10037,.36248E-4,.3809E-4,0
STARLINK-11264 [DTC],2024-154D,2026-05-24T05:14:49.394400,15.69717402,.0000565,53.1578,119.1845,42.1466,317.9596,0,U,60906,999,10037,.1561E-4,.1304E-4,0
STARLINK-11226 [DTC],2024-154E,2026-05-24T05:07:47.146368,15.69695819,.0000634,53.1585,119.1492,41.5013,318.6052,0,U,60907,999,10037,-.21804E-7,-.59E-5,0
STARLINK-11229 [DTC],2024-154F,2026-05-24T03:29:02.044320,15.69697732,.0001278,53.1583,119.4334,90.4221,269.6943,0,U,60908,999,10036,-.26348E-5,-.908E-5,0
STARLINK-11265 [DTC],2024-154G,2026-05-24T05:28:57.946080,15.69709900,.0001774,53.1600,119.2489,84.0881,276.0339,0,U,60909,999,10037,.72821E-5,.293E-5,0
STARLINK-11250 [DTC],2024-154H,2026-05-24T04:53:38.946336,15.69702675,.0000909,53.1589,119.0859,87.3088,272.8034,0,U,60910,999,10037,-.28455E-5,-.933E-5,0
STARLINK-11190 [DTC],2024-154J,2026-05-24T04:46:35.023008,15.69705680,.0000937,53.1581,119.0540,96.9816,263.1309,0,U,60911,999,10036,.92994E-6,-.476E-5,0
STARLINK-11225 [DTC],2024-154K,2026-05-24T03:07:50.448864,15.69710208,.0001215,53.1590,119.3357,76.7090,283.4063,0,U,60912,999,10035,-.16594E-4,-.2599E-4,0
STARLINK-11273 [DTC],2024-154L,2026-05-24T03:00:45.728928,15.69717512,.0000407,53.1589,119.3033,152.9552,207.1487,0,U,60913,999,10035,.22819E-4,.2178E-4,0
STARLINK-11271 [DTC],2024-154N,2026-05-24T02:46:38.728128,15.69707780,.0001106,53.1593,119.2369,79.4029,280.7114,0,U,60915,999,10035,.99929E-6,-.468E-5,0
STARLINK-32371,2024-154P,2026-05-24T02:52:42.441024,15.30193051,.000093,53.1593,293.4759,98.4370,261.6736,0,U,60916,999,9788,.26592E-4,.429E-5,0
STARLINK-32369,2024-154Q,2026-05-23T20:09:08.629344,15.30195719,.0001078,53.1611,294.5752,78.4041,281.7080,0,U,60917,999,9784,.17006E-5,-.309E-5,0
STARLINK-32317,2024-154R,2026-05-24T03:29:10.428576,15.30195369,.0001241,53.1600,293.6385,83.1347,276.9795,0,U,60918,999,9788,.12737E-4,.18E-6,0
STARLINK-32367,2024-154S,2026-05-23T19:52:25.313664,15.30199767,.0001135,53.1619,294.5011,86.1318,273.9813,0,U,60919,999,9784,.32043E-4,.59E-5,0
STARLINK-32345,2024-154T,2026-05-24T03:30:42.054048,15.30188581,.0001299,53.1620,293.6393,101.4652,258.6495,0,U,60920,999,9789,-.55293E-5,-.523E-5,0
STARLINK-32356,2024-154U,2026-05-23T17:14:42.758016,15.30193842,.0001099,53.1608,295.2358,93.7250,266.3876,0,U,60921,999,9783,.21548E-4,.279E-5,0
STARLINK-32274,2024-154V,2026-05-24T03:03:20.619936,15.30191535,.0000981,53.1611,293.5202,97.8288,262.2824,0,U,60922,999,9789,.13022E-5,-.32E-5,0
STARLINK-32373,2024-154W,2026-05-24T03:17:01.188384,15.30192386,.0001202,53.1611,293.5795,98.4728,261.6409,0,U,60923,999,9789,.3958E-6,-.347E-5,0
STARLINK-11239 [DTC],2024-155A,2026-05-23T22:08:10.510368,15.69710516,.0000948,53.1573,330.7410,83.0065,277.1060,0,U,60924,999,10021,.2591E-5,-.274E-5,0
STARLINK-11245 [DTC],2024-155B,2026-05-23T21:46:58.800000,15.69714524,.0000942,53.1585,330.6449,115.3951,244.7165,0,U,60925,999,10021,.70359E-5,.264E-5,0
STARLINK-11244 [DTC],2024-155C,2026-05-23T21:32:51.385344,15.69709952,.0001026,53.1584,330.5792,87.1907,272.9228,0,U,60926,999,10026,.18108E-6,-.567E-5,0
STARLINK-11243 [DTC],2024-155D,2026-05-23T21:39:55.015776,15.69712773,.000067,53.1560,330.6112,90.1589,269.9506,0,U,60927,999,10021,.96585E-5,.582E-5,0
STARLINK-11238 [DTC],2024-155E,2026-05-23T21:25:47.309952,15.69713635,.0000802,53.1591,330.5433,118.9902,241.1197,0,U,60928,999,10026,.70463E-5,.266E-5,0
STARLINK-11240 [DTC],2024-155F,2026-05-23T19:47:02.582016,15.69709444,.0000736,53.1590,330.8276,116.1479,243.9614,0,U,60929,999,10020,-.10137E-5,-.711E-5,0
STARLINK-11251 [DTC],2024-155G,2026-05-23T19:39:58.660416,15.69710980,.000078,53.1582,330.7958,102.2768,257.8338,0,U,60930,999,10020,.13751E-5,-.421E-5,0
STARLINK-11204 [DTC],2024-155H,2026-05-23T19:32:55.188096,15.69701493,.0000696,53.1571,330.7633,59.3625,300.7462,0,U,60931,999,10020,.36621E-4,.3849E-4,0
STARLINK-11246 [DTC],2024-155J,2026-05-23T22:29:13.273152,15.69710110,.0001023,53.1594,330.0983,53.7800,306.3313,0,U,60932,999,10022,.55086E-5,.79E-6,0
STARLINK-11207 [DTC],2024-155K,2026-05-23T19:18:47.464992,15.69705579,.0000707,53.1557,330.6952,74.1448,285.9648,0,U,60933,999,10020,-.2076E-5,-.839E-5,0
STARLINK-11237 [DTC],2024-155L,2026-05-23T22:15:05.378976,15.69706333,.0001319,53.1577,330.0351,90.8148,269.3021,0,U,60934,999,10023,.34943E-4,.3646E-4,0
STARLINK-11253 [DTC],2024-155M,2026-05-23T22:01:06.669120,15.69709109,.0001008,53.1587,330.7049,77.5868,282.5262,0,U,60935,999,10021,.50252E-5,.2E-6,0
STARLINK-11241 [DTC],2024-155N,2026-05-23T18:50:41.211744,15.69703616,.0000676,53.1588,331.3008,74.9303,285.1789,0,U,60936,999,10019,-.10807E-4,-.1896E-4,0
STARLINK-32259,2024-155P,2026-05-23T23:10:39.008064,15.30193116,.0001438,53.1593,140.1847,74.8340,285.2820,0,U,60937,999,9786,.79852E-5,-.123E-5,0
STARLINK-32262,2024-155Q,2026-05-24T03:40:44.954976,15.77590255,.0009219,53.1395,100.8953,35.5539,324.6095,0,U,60938,999,9847,.76569E-3,.131893E-2,0
STARLINK-32258,2024-155R,2026-05-24T03:33:02.620800,15.30193965,.000106,53.1591,139.1871,88.0959,272.0164,0,U,60939,999,9784,.18097E-4,.177E-5,0
STARLINK-32251,2024-155S,2026-05-24T03:42:09.793728,15.30194697,.000059,53.1587,139.2274,54.0937,306.0119,0,U,60940,999,9789,.11221E-4,-.26E-6,0
STARLINK-32224,2024-155T,2026-05-24T03:37:35.991264,15.30194748,.0001117,53.1593,139.2058,77.0855,283.0270,0,U,60941,999,9790,.39817E-4,.82E-5,0
STARLINK-32184,2024-155U,2026-05-23T23:06:05.119200,15.30190955,.0001202,53.1590,140.1649,93.6231,266.4907,0,U,60942,999,9781,.98211E-5,-.68E-6,0
